P/2011 FR143 (Lemmon),e,15.9813,190.9510,350.0850,6.858914,0.0548682,0.45068076,206.9200,06/26.0/2021,2000,g 14.0,2.0
# From MPC 82317
P/2011 JB15 (Spacewatch-Boattini),e,19.1473,153.5835,111.0497,7.357488,0.0493867,0.31751836,169.9849,06/26.0/2021,2000,g  9.0,4.0
# From MPC 87913
P/2011 N1 (ASH),e,35.7263,77.5939,330.3368,6.248759,0.0630977,0.54407951,209.7913,06/26.0/2021,2000,g 11.5,4.0
# From MPC 75714
P/2011 NO1 (Elenin),e,15.2481,295.8012,263.7913,5.525140,0.0758908,0.77466106,289.1104,06/26.0/2021,2000,g 15.0,4.0
# From MPC 82318
P/2011 P1 (McNaught),e,5.6599,4.2373,348.9400,7.465795,0.0483159,0.32745806,192.8350,06/26.0/2021,2000,g  9.0,4.0
# From MPC 77806
P/2011 Q3 (McNaught),e,6.0574,32.0268,310.9892,4.970465,0.0889423,0.53272114,322.6949,06/26.0/2021,2000,g 13.5,4.0
# From MPC 98558
P/2011 S1 (Gibbs),e,2.6848,218.8775,192.4416,8.585203,0.0391812,0.20059112,98.3753,06/26.0/2021,2000,g  8.0,4.0
# From MPC 79022
P/2011 UA134 (Spacewatch-PANSTARRS),e,10.4410,40.4057,32.4277,5.606466,0.0742455,0.62934549,261.0339,06/26.0/2021,2000,g 17.5,4.0
# From MPC 77406
P/2011 V1 (Boattini),e,7.3758,46.8284,269.2922,3.855567,0.1301882,0.55057762,129.8929,06/26.0/2021,2000,g 15.5,4.0
# From MPC 82718
P/2011 W1 (PANSTARRS),e,3.7186,161.7892,282.7444,4.661207,0.0979392,0.28729669,337.7959,06/26.0/2021,2000,g 11.5,4.0
# From MPC 79342
P/2011 Y2 (Boattini),e,6.3719,309.3650,131.9138,6.239690,0.0632353,0.70946234,215.0280,06/26.0/2021,2000,g 15.0,4.0
# From MPC 94669
P/2012 B1 (PANSTARRS),e,7.6129,36.2102,162.5437,6.529402,0.0590737,0.40933614,171.3307,06/26.0/2021,2000,g  9.0,4.0
# From MPC 78590
P/2012 C3 (PANSTARRS),e,9.0920,135.3677,344.9542,9.748681,0.0323806,0.63011148,359.9758,10/06.0/2011,2000,g 13.0,4.0
# From MPC 84931
P/2012 F2 (PANSTARRS),e,14.7165,227.0359,33.2928,6.330516,0.0618793,0.54229409,185.4086,06/26.0/2021,2000,g 12.0,4.0
# From MPC 79344
P/2012 G1 (PANSTARRS),e,11.6925,282.5440,286.1149,4.172871,0.1156250,0.38072240,359.9500,06/01.0/2012,2000,g 15.0,4.0
# From MPC 80898
P/2012 K3 (Gibbs),e,13.1945,125.8091,172.1892,3.625823,0.1427559,0.42333397,96.8581,06/26.0/2021,2000,g 15.0,4.0
# From MPC 88326
P/2012 NJ (La Sagra),e,84.6627,315.5452,338.3495,8.461501,0.0400436,0.84718395,132.1167,06/26.0/2021,2000,g 14.5,4.0
# From MPC 81470
P/2012 O1 (McNaught),e,7.4313,91.9755,238.2428,3.540700,0.1479348,0.59458309,125.2143,06/26.0/2021,2000,g 17.5,4.0
# From MPC 80899
P/2012 O2 (McNaught),e,24.4853,120.6802,183.4346,3.624069,0.1428596,0.53269130,111.6957,06/26.0/2021,2000,g 17.0,4.0
# From MPC 82720
P/2012 O3 (McNaught),e,16.6158,336.4136,344.7345,4.573212,0.1007795,0.64700114,325.9609,06/26.0/2021,2000,g 16.5,4.0
# From MPC 82720
P/2012 S2 (La Sagra),e,8.6856,51.1863,312.4767,4.414687,0.1062562,0.69134875,346.4260,06/26.0/2021,2000,g 17.0,4.0
# From MPC 82320
P/2012 T2 (PANSTARRS),e,12.5589,73.7222,310.4575,5.734990,0.0717637,0.16131328,214.3981,06/26.0/2021,2000,g 10.0,4.0
# From MPC 80900
P/2012 T3 (PANSTARRS),e,9.5671,114.4038,195.4743,6.151611,0.0645983,0.61724597,215.8000,06/26.0/2021,2000,g 15.0,4.0
# From MPC 87914
P/2012 TK8 (Tenagra),e,6.3402,288.9639,128.0204,4.127010,0.1175576,0.27420061,345.6460,06/26.0/2021,2000,g 13.0,4.0
# From MPC 82720
P/2012 U2 (PANSTARRS),e,10.7542,185.2961,228.2686,7.139230,0.0516686,0.49845641,162.7942,06/26.0/2021,2000,g 12.5,4.0
# From MPC 84024
P/2012 US27 (Siding Spring),e,39.3438,49.1797,0.8047,5.166456,0.0839296,0.64766766,258.1194,06/26.0/2021,2000,g 13.5,4.0
# From MPC 82721
P/2012 WA34 (Lemmon-PANSTARRS),e,6.0895,94.1034,354.5871,4.732489,0.0957348,0.34596359,289.5047,06/26.0/2021,2000,g 13.5,4.0
# From MPC 82721
P/2013 AL76 (Catalina),e,144.8434,145.9823,27.0910,6.496967,0.0595166,0.68627984,185.8192,06/26.0/2021,2000,g 16.0,4.0
# From MPC 91612
P/2013 G1 (Kowalski),e,5.4645,221.3805,51.4467,6.890179,0.0544952,0.51272936,149.9637,06/26.0/2021,2000,g 11.0,4.0
# From MPC 84025
P/2013 G4 (PANSTARRS),e,5.9164,339.6387,214.6813,4.440062,0.1053466,0.40950575,322.2363,06/26.0/2021,2000,g 15.0,4.0
# From MPC 91613
P/2013 J2 (McNaught),e,15.5306,289.4152,37.7584,6.222908,0.0634913,0.65764535,181.4747,06/26.0/2021,2000,g 13.0,4.0
# From MPC 86229
P/2013 N3 (PANSTARRS),e,2.1737,17.4734,323.8934,7.391417,0.0490470,0.59327104,131.7790,06/26.0/2021,2000,g 13.0,4.0
# From MPC 85834
P/2013 N5 (PANSTARRS),e,23.4383,187.1601,176.8972,6.798400,0.0556025,0.73214335,162.0544,06/26.0/2021,2000,g 17.0,4.0
# From MPC 85834
P/2013 P1 (PANSTARRS),e,18.7237,160.5988,138.1577,8.572082,0.0392712,0.60586150,119.3019,06/26.0/2021,2000,g 12.0,4.0
# From MPC 94671
P/2013 R3 (Catalina-PANSTARRS),e,0.8653,342.0008,11.1732,3.033641,0.1865339,0.27525568,173.8382,06/26.0/2021,2000,g 14.0,4.0
# From unp
P/2013 R3-A (Catalina-PANSTARRS),e,0.8647,341.9676,11.2122,3.033499,0.1865470,0.27522518,173.8732,06/26.0/2021,2000,g  9.0,4.0
# From MPEC 2015-M77
P/2013 R3-B (Catalina-PANSTARRS),e,0.8659,342.0235,11.1471,3.033718,0.1865269,0.27527068,173.8195,06/26.0/2021,2000,g  9.0,4.0
# From MPC 85835
P/2013 T1 (PANSTARRS),e,24.2876,10.0831,346.1002,5.860148,0.0694770,0.62392817,200.3788,06/26.0/2021,2000,g 16.5,4.0
# From MPC 86643
P/2013 T2 (Schwartz),e,9.4566,0.8074,345.5130,3.490219,0.1511559,0.50123703,86.6619,06/26.0/2021,2000,g 16.0,4.0
# From MPC 91613
P/2013 W1 (PANSTARRS),e,4.6955,117.8474,1.2795,3.489943,0.1511738,0.59275635,43.6464,06/26.0/2021,2000,g 17.5,4.0
# From MPC101095
P/2013 YG46 (Spacewatch),e,7.8559,48.8509,242.5355,3.275907,0.1662290,0.45488825,267.0569,06/26.0/2021,2000,g 10.0,4.0
# From MPC 89728
P/2014 A2 (Hill),e,24.5362,106.6297,356.2010,5.927049,0.0683040,0.64529250,192.1379,06/26.0/2021,2000,g 15.0,4.0
# From MPC 92981
P/2014 A3 (PANSTARRS),e,13.6913,230.0641,213.4122,4.622522,0.0991712,0.24741732,294.3679,06/26.0/2021,2000,g 12.0,4.0
# From MPC119994
C/2014 B1 (Schwartz),e,28.4098,161.4191,345.7313,5771,0.0000022,0.99834508,0.0000,09/07.9408/2017,2000,g  4.0,4.0
# From MPC102095
P/2014 C1 (TOTAS),e,2.6887,167.7660,23.9671,3.038311,0.1861041,0.44838877,149.6960,06/26.0/2021,2000,g 15.5,4.0
# From MPC 94280
C/2014 F3 (Sheppard-Trujillo),e,6.5989,326.7442,3.6245,15.40038,0.0163082,0.63055820,0.6025,06/26.0/2021,2000,g  6.0,4.0
# From MPC 98560
P/2014 L2 (NEOWISE),e,5.1992,149.3476,182.6629,6.303749,0.0622738,0.64823745,157.7454,06/26.0/2021,2000,g 12.0,4.0
# From MPC 90769
P/2014 L3 (Hill),e,6.2768,115.4727,178.6610,8.170366,0.0422028,0.77370749,107.6724,06/26.0/2021,2000,g 16.0,4.0
# From MPC 91614
P/2014 M4 (PANSTARRS),e,3.3368,263.2504,147.9576,5.873137,0.0692467,0.59437415,164.4286,06/26.0/2021,2000,g 15.0,4.0
# From MPC103844
P/2014 MG4 (Spacewatch-PANSTARRS),e,9.3712,311.7343,299.1016,5.012140,0.0878353,0.25951478,257.3072,06/26.0/2021,2000,g  9.5,4.0
# From MPC 98560
P/2014 O3 (PANSTARRS),e,7.8049,87.6443,204.6486,7.566431,0.0473552,0.38591824,124.2157,06/26.0/2021,2000,g 10.5,4.0
# From MPEC 2020-AA5
C/2014 OE4 (PANSTARRS),h,12/12.9925/2016,81.2979,240.4232,65.8919,1.003178,6.249761,2000,11.0,2.0
# From MPC115880
C/2014 R3 (PANSTARRS),e,90.9280,334.0965,113.4331,20506,0.0000003,0.99964536,0.0000,08/09.0457/2016,2000,g  6.5,4.0
# From MPC 91615
P/2014 R5 (Lemmon-PANSTARRS),e,1.0883,126.5608,213.7360,4.056280,0.1206458,0.41370439,309.4487,06/26.0/2021,2000,g 15.0,4.0
# From MPC 91616
P/2014 U4 (PANSTARRS),e,6.4292,11.8904,347.7426,3.505950,0.1501397,0.46487056,19.8916,06/26.0/2021,2000,g 18.0,4.0
# From MPEC 2021-M83
C/2014 UN271 (Bernardinelli-Bernstein),e,95.4465,189.9302,326.3825,7075,0.0000017,0.99845453,0.0000,01/27.2733/2031,2000,g  2.5,3.2
# From MPC 95211
P/2014 V1 (PANSTARRS),e,22.5228,166.2003,177.5861,5.480741,0.0768148,0.53436653,180.1110,06/26.0/2021,2000,g 14.0,4.0
# From MPC 93586
P/2014 W1 (PANSTARRS),e,8.8378,246.2449,152.2104,4.462532,0.1045519,0.38878643,265.1775,06/26.0/2021,2000,g 15.5,4.0
# From MPC105542
P/2014 W4 (PANSTARRS),e,15.2754,33.3621,67.7790,6.596660,0.0581725,0.35218920,116.6572,06/26.0/2021,2000,g 11.0,4.0
# From MPC 93587
P/2014 W12 (Gibbs),e,8.5133,299.2896,36.8681,3.519819,0.1492532,0.52421809,1.0078,06/26.0/2021,2000,g 15.0,4.0
# From MPC 94281
P/2014 X1 (Elenin),e,26.0121,61.5154,33.9473,6.208727,0.0637089,0.70865407,150.8990,06/26.0/2021,2000,g 15.0,4.0
# From MPC 92275
P/2015 A3 (PANSTARRS),e,172.5314,277.1976,249.2797,7.809161,0.0451645,0.85108206,104.8053,06/26.0/2021,2000,g 20.0,4.0
# From MPC 99270
P/2015 B1 (PANSTARRS),e,18.0353,352.9902,188.8816,9.498101,0.0336704,0.36781280,71.1044,06/26.0/2021,2000,g  8.5,4.0
# From MPC109141
P/2015 B4 (Lemmon-PANSTARRS),e,1.7602,266.0268,227.4360,8.528970,0.0395694,0.56010300,92.3778,06/26.0/2021,2000,g 11.0,4.0
# From MPC101096
P/2015 C1 (TOTAS-Gibbs),e,13.8965,348.8125,178.2769,6.582521,0.0583601,0.56028772,131.4632,06/26.0/2021,2000,g 12.5,4.0
# From MPC109141
P/2015 D5 (Kowalski),e,20.5059,74.0603,39.8384,8.967117,0.0367050,0.48889167,97.0448,06/26.0/2021,2000,g  9.0,4.0
# From MPC 96866
P/2015 D6 (Lemmon-PANSTARRS),e,20.2011,45.9801,125.1533,7.143029,0.0516274,0.36164540,112.8700,06/26.0/2021,2000,g 10.5,4.0
# From MPC112390
C/2015 ER61 (PANSTARRS),e,6.3328,235.1212,68.3721,510.9808,0.0000853,0.99795607,0.0000,05/10.5051/2017,2000,g 11.0,2.0
# From MPEC 2018-BF5
C/2015 E61-B (PANSTARRS),e,6.3344,235.1563,68.4614,1538,0.0000163,0.99932001,0.0000,05/10.4828/2017,2000,g 13.5,2.0
# From MPC117068
C/2015 H2 (PANSTARRS),h,09/14.1050/2016,33.6483,350.6721,288.1329,1.005642,4.981381,2000,7.5,4.0
# From MPC100280
P/2015 HG16 (PANSTARRS),e,18.7800,58.5585,47.5524,4.749334,0.0952259,0.35198573,244.0885,06/26.0/2021,2000,g 12.5,4.0
# From MPC 95213
P/2015 K5 (PANSTARRS),e,39.9448,134.1752,106.3528,6.722205,0.0565505,0.55313175,125.1585,06/26.0/2021,2000,g 13.5,4.0
# From MPC107684
P/2015 M2 (PANSTARRS),e,3.9722,86.5850,225.5800,7.231923,0.0506785,0.18092708,107.1860,06/26.0/2021,2000,g  8.5,4.0
# From MPC112390
C/2015 O1 (PANSTARRS),h,02/19.7709/2018,127.2218,299.8506,89.6197,1.001254,3.728032,2000,6.5,4.0
# From MPC 99819
